[{"OBJECT_NAME":"STARLINK-31581","OBJECT_ID":"2024-068V","EPOCH":"2026-03-09T22:38:35.616192","MEAN_MOTION":15.27565767,"ECCENTRICITY":0.0001373,"INCLINATION":43.0058,"RA_OF_ASC_NODE":25.9663,"ARG_OF_PERICENTER":272.1842,"MEAN_ANOMALY":87.8853,"EPHEMERIS_TYPE":0,"CLASSIFICATION_TYPE":"U","NORAD_CAT_ID":59474,"ELEMENT_SET_NO":999,"REV_AT_EPOCH":10864,"BSTAR":4.456418e-5,"MEAN_MOTION_DOT":9.64e-6,"MEAN_MOTION_DDOT":0},{"OBJECT_NAME":"YAOGAN-43 01H","OBJECT_ID":"2024-148H","EPOCH":"2026-03-10T00:13:57.702432","MEAN_MOTION":15.25826805,"ECCENTRICITY":0.000635,"INCLINATION":34.994,"RA_OF_ASC_NODE":64.6147,"ARG_OF_PERICENTER":359.2394,"MEAN_ANOMALY":0.8311,"EPHEMERIS_TYPE":0,"CLASSIFICATION_TYPE":"U","NORAD_CAT_ID":60465,"ELEMENT_SET_NO":999,"REV_AT_EPOCH":8702,"BSTAR":0.00039232254,"MEAN_MOTION_DOT":0.00010268,"MEAN_MOTION_DDOT":0}]
